[
  {
    "COMMENT": "GENERATED VIA SPACETRACK.ORG API",
    "ORIGINATOR": "18 SPCS",
    "NORAD_CAT_ID": "43682",
    "OBJECT_NAME": "H-2A R/B",
    "OBJECT_TYPE": "ROCKET BODY",
    "CLASSIFICATION_TYPE": "U",
    "INTLDES": "18084L",
    "EPOCH": "2020-01-04 12:43:55",
    "EPOCH_MICROSECONDS": "542144",
    "MEAN_MOTION": "15.02734609",
    "ECCENTRICITY": "0.0057794",
    "INCLINATION": "98.8998",
    "RA_OF_ASC_NODE": "187.2012",
    "ARG_OF_PERICENTER": "314.7825",
    "MEAN_ANOMALY": "44.8703",
    "EPHEMERIS_TYPE": "0",
    "ELEMENT_SET_NO": "999",
    "REV_AT_EPOCH": "6488",
    "BSTAR": "-0.000024532",
    "MEAN_MOTION_DOT": "-0.00000426",
    "MEAN_MOTION_DDOT": "0",
    "FILE": "2678242",
    "TLE_LINE0": "0 H-2A R/B",
    "TLE_LINE1": "1 43682U 18084L   20004.53050396 -.00000426  00000-0 -24532-4 0  9995",
    "TLE_LINE2": "2 43682  98.8998 187.2012 0057794 314.7825  44.8703 15.02734609 64888",
    "OBJECT_ID": "2018-084L",
    "OBJECT_NUMBER": "43682",
    "SEMIMAJOR_AXIS": "6936.605",
    "PERIOD": "95.825",
    "APOGEE": "598.560",
    "PERIGEE": "518.381",
    "DECAYED": "0"
  },
  {
    "COMMENT": "GENERATED VIA SPACETRACK.ORG API",
    "ORIGINATOR": "18 SPCS",
    "NORAD_CAT_ID": "43682",
    "OBJECT_NAME": "H-2A R/B",
    "OBJECT_TYPE": "ROCKET BODY",
    "CLASSIFICATION_TYPE": "U",
    "INTLDES": "18084L",
    "EPOCH": "2020-01-04 14:19:48",
    "EPOCH_MICROSECONDS": "507744",
    "MEAN_MOTION": "15.02734566",
    "ECCENTRICITY": "0.0057798",
    "INCLINATION": "98.8998",
    "RA_OF_ASC_NODE": "187.2776",
    "ARG_OF_PERICENTER": "314.5726",
    "MEAN_ANOMALY": "45.0783",
    "EPHEMERIS_TYPE": "0",
    "ELEMENT_SET_NO": "999",
    "REV_AT_EPOCH": "6489",
    "BSTAR": "-0.000024526",
    "MEAN_MOTION_DOT": "-0.00000426",
    "MEAN_MOTION_DDOT": "0",
    "FILE": "2678683",
    "TLE_LINE0": "0 H-2A R/B",
    "TLE_LINE1": "1 43682U 18084L   20004.59708921 -.00000426 +00000-0 -24526-4 0  9998",
    "TLE_LINE2": "2 43682 098.8998 187.2776 0057798 314.5726 045.0783 15.02734566064891",
    "OBJECT_ID": "2018-084L",
    "OBJECT_NUMBER": "43682",
    "SEMIMAJOR_AXIS": "6936.605",
    "PERIOD": "95.825",
    "APOGEE": "598.563",
    "PERIGEE": "518.378",
    "DECAYED": "0"
  },
  {
    "COMMENT": "GENERATED VIA SPACETRACK.ORG API",
    "ORIGINATOR": "18 SPCS",
    "NORAD_CAT_ID": "43682",
    "OBJECT_NAME": "H-2A R/B",
    "OBJECT_TYPE": "ROCKET BODY",
    "CLASSIFICATION_TYPE": "U",
    "INTLDES": "18084L",
    "EPOCH": "2020-01-05 22:17:27",
    "EPOCH_MICROSECONDS": "735936",
    "MEAN_MOTION": "15.02734952",
    "ECCENTRICITY": "0.0057799",
    "INCLINATION": "98.8994",
    "RA_OF_ASC_NODE": "188.8054",
    "ARG_OF_PERICENTER": "310.2214",
    "MEAN_ANOMALY": "49.3958",
    "EPHEMERIS_TYPE": "0",
    "ELEMENT_SET_NO": "999",
    "REV_AT_EPOCH": "6509",
    "BSTAR": "-0.000012195",
    "MEAN_MOTION_DOT": "-0.00000255",
    "MEAN_MOTION_DDOT": "0",
    "FILE": "2679057",
    "TLE_LINE0": "0 H-2A R/B",
    "TLE_LINE1": "1 43682U 18084L   20005.92879324 -.00000255 +00000-0 -12195-4 0  9991",
    "TLE_LINE2": "2 43682 098.8994 188.8054 0057799 310.2214 049.3958 15.02734952065092",
    "OBJECT_ID": "2018-084L",
    "OBJECT_NUMBER": "43682",
    "SEMIMAJOR_AXIS": "6936.604",
    "PERIOD": "95.825",
    "APOGEE": "598.562",
    "PERIGEE": "518.376",
    "DECAYED": "0"
  },
  {
    "COMMENT": "GENERATED VIA SPACETRACK.ORG API",
    "ORIGINATOR": "18 SPCS",
    "NORAD_CAT_ID": "43682",
    "OBJECT_NAME": "H-2A R/B",
    "OBJECT_TYPE": "ROCKET BODY",
    "CLASSIFICATION_TYPE": "U",
    "INTLDES": "18084L",
    "EPOCH": "2020-01-06 03:05:06",
    "EPOCH_MICROSECONDS": "634464",
    "MEAN_MOTION": "15.02734937",
    "ECCENTRICITY": "0.0057721",
    "INCLINATION": "98.8991",
    "RA_OF_ASC_NODE": "189.034",
    "ARG_OF_PERICENTER": "309.5484",
    "MEAN_ANOMALY": "50.0646",
    "EPHEMERIS_TYPE": "0",
    "ELEMENT_SET_NO": "999",
    "REV_AT_EPOCH": "6512",
    "BSTAR": "-0.00001186",
    "MEAN_MOTION_DOT": "-0.0000025",
    "MEAN_MOTION_DDOT": "0",
    "FILE": "2679130",
    "TLE_LINE0": "0 H-2A R/B",
    "TLE_LINE1": "1 43682U 18084L   20006.12854901 -.00000250  00000-0 -11860-4 0  9991",
    "TLE_LINE2": "2 43682  98.8991 189.0340 0057721 309.5484  50.0646 15.02734937 65125",
    "OBJECT_ID": "2018-084L",
    "OBJECT_NUMBER": "43682",
    "SEMIMAJOR_AXIS": "6936.604",
    "PERIOD": "95.825",
    "APOGEE": "598.508",
    "PERIGEE": "518.430",
    "DECAYED": "0"
  },
  {
    "COMMENT": "GENERATED VIA SPACETRACK.ORG API",
    "ORIGINATOR": "18 SPCS",
    "NORAD_CAT_ID": "43682",
    "OBJECT_NAME": "H-2A R/B",
    "OBJECT_TYPE": "ROCKET BODY",
    "CLASSIFICATION_TYPE": "U",
    "INTLDES": "18084L",
    "EPOCH": "2020-01-06 22:15:42",
    "EPOCH_MICROSECONDS": "36768",
    "MEAN_MOTION": "15.02736278",
    "ECCENTRICITY": "0.0057804",
    "INCLINATION": "98.8991",
    "RA_OF_ASC_NODE": "189.9516",
    "ARG_OF_PERICENTER": "306.8799",
    "MEAN_ANOMALY": "52.7132",
    "EPHEMERIS_TYPE": "0",
    "ELEMENT_SET_NO": "999",
    "REV_AT_EPOCH": "6524",
    "BSTAR": "0.0000035592",
    "MEAN_MOTION_DOT": "-0.00000037",
    "MEAN_MOTION_DDOT": "0",
    "FILE": "2679641",
    "TLE_LINE0": "0 H-2A R/B",
    "TLE_LINE1": "1 43682U 18084L   20006.92756987 -.00000037 +00000-0 +35592-5 0  9995",
    "TLE_LINE2": "2 43682 098.8991 189.9516 0057804 306.8799 052.7132 15.02736278065242",
    "OBJECT_ID": "2018-084L",
    "OBJECT_NUMBER": "43682",
    "SEMIMAJOR_AXIS": "6936.600",
    "PERIOD": "95.825",
    "APOGEE": "598.561",
    "PERIGEE": "518.369",
    "DECAYED": "0"
  },
  {
    "COMMENT": "GENERATED VIA SPACETRACK.ORG API",
    "ORIGINATOR": "18 SPCS",
    "NORAD_CAT_ID": "43682",
    "OBJECT_NAME": "H-2A R/B",
    "OBJECT_TYPE": "ROCKET BODY",
    "CLASSIFICATION_TYPE": "U",
    "INTLDES": "18084L",
    "EPOCH": "2020-01-07 12:38:38",
    "EPOCH_MICROSECONDS": "588064",
    "MEAN_MOTION": "15.02737586",
    "ECCENTRICITY": "0.005782",
    "INCLINATION": "98.8988",
    "RA_OF_ASC_NODE": "190.6391",
    "ARG_OF_PERICENTER": "304.9903",
    "MEAN_ANOMALY": "54.5898",
    "EPHEMERIS_TYPE": "0",
    "ELEMENT_SET_NO": "999",
    "REV_AT_EPOCH": "6533",
    "BSTAR": "0.00001702",
    "MEAN_MOTION_DOT": "0.0000015",
    "MEAN_MOTION_DDOT": "0",
    "FILE": "2679887",
    "TLE_LINE0": "0 H-2A R/B",
    "TLE_LINE1": "1 43682U 18084L   20007.52683551  .00000150  00000-0  17020-4 0  9998",
    "TLE_LINE2": "2 43682  98.8988 190.6391 0057820 304.9903  54.5898 15.02737586 65334",
    "OBJECT_ID": "2018-084L",
    "OBJECT_NUMBER": "43682",
    "SEMIMAJOR_AXIS": "6936.596",
    "PERIOD": "95.825",
    "APOGEE": "598.569",
    "PERIGEE": "518.354",
    "DECAYED": "0"
  },
  {
    "COMMENT": "GENERATED VIA SPACETRACK.ORG API",
    "ORIGINATOR": "18 SPCS",
    "NORAD_CAT_ID": "43682",
    "OBJECT_NAME": "H-2A R/B",
    "OBJECT_TYPE": "ROCKET BODY",
    "CLASSIFICATION_TYPE": "U",
    "INTLDES": "18084L",
    "EPOCH": "2020-01-07 22:13:56",
    "EPOCH_MICROSECONDS": "342784",
    "MEAN_MOTION": "15.0273795",
    "ECCENTRICITY": "0.0057759",
    "INCLINATION": "98.8987",
    "RA_OF_ASC_NODE": "191.0972",
    "ARG_OF_PERICENTER": "303.6765",
    "MEAN_ANOMALY": "55.8965",
    "EPHEMERIS_TYPE": "0",
    "ELEMENT_SET_NO": "999",
    "REV_AT_EPOCH": "6539",
    "BSTAR": "0.000018836",
    "MEAN_MOTION_DOT": "0.00000175",
    "MEAN_MOTION_DDOT": "0",
    "FILE": "2680193",
    "TLE_LINE0": "0 H-2A R/B",
    "TLE_LINE1": "1 43682U 18084L   20007.92634656 +.00000175 +00000-0 +18836-4 0  9997",
    "TLE_LINE2": "2 43682 098.8987 191.0972 0057759 303.6765 055.8965 15.02737950065396",
    "OBJECT_ID": "2018-084L",
    "OBJECT_NUMBER": "43682",
    "SEMIMAJOR_AXIS": "6936.595",
    "PERIOD": "95.825",
    "APOGEE": "598.525",
    "PERIGEE": "518.395",
    "DECAYED": "0"
  },
  {
    "COMMENT": "GENERATED VIA SPACETRACK.ORG API",
    "ORIGINATOR": "18 SPCS",
    "NORAD_CAT_ID": "43682",
    "OBJECT_NAME": "H-2A R/B",
    "OBJECT_TYPE": "ROCKET BODY",
    "CLASSIFICATION_TYPE": "U",
    "INTLDES": "18084L",
    "EPOCH": "2020-01-08 14:12:45",
    "EPOCH_MICROSECONDS": "755136",
    "MEAN_MOTION": "15.02739847",
    "ECCENTRICITY": "0.0057769",
    "INCLINATION": "98.8983",
    "RA_OF_ASC_NODE": "191.8609",
    "ARG_OF_PERICENTER": "301.5416",
    "MEAN_ANOMALY": "58.0174",
    "EPHEMERIS_TYPE": "0",
    "ELEMENT_SET_NO": "999",
    "REV_AT_EPOCH": "6549",
    "BSTAR": "0.000034827",
    "MEAN_MOTION_DOT": "0.00000397",
    "MEAN_MOTION_DDOT": "0",
    "FILE": "2680657",
    "TLE_LINE0": "0 H-2A R/B",
    "TLE_LINE1": "1 43682U 18084L   20008.59219624  .00000397  00000-0  34827-4 0  9999",
    "TLE_LINE2": "2 43682  98.8983 191.8609 0057769 301.5416  58.0174 15.02739847 65493",
    "OBJECT_ID": "2018-084L",
    "OBJECT_NUMBER": "43682",
    "SEMIMAJOR_AXIS": "6936.589",
    "PERIOD": "95.825",
    "APOGEE": "598.526",
    "PERIGEE": "518.382",
    "DECAYED": "0"
  }
]